{
"type": "FeatureCollection",
"name": "baseline",
"crs": { "type": "name", "properties": { "name": "urn:ogc:def:crs:OGC:1.3:CRS84" } },
"features": [
{"type":"Feature","properties":{},"geometry":{"type":"LineString","coordinates":[[91.953492510607603,21.463457231325137],[91.953554901411323,21.461557694304574],[91.953706421934641,21.45948393566481],[91.953938159205578,21.458015696708035],[91.954312504027882,21.45607461233681],[91.954918586121138,21.454249637645837],[91.955462277410675,21.45256566346184],[91.95873333811987,21.445588991808499],[91.970070638452526,21.43117832945434],[91.97388539045123,21.427461358985362],[91.98258445108381,21.417637481517243],[91.990427866408282,21.407812943300346],[92.000695610105765,21.393871586705419],[92.005330355524777,21.387232378277549],[92.013672897278994,21.375745836209397],[92.019876325762894,21.366715320567302],[92.024724982508928,21.357551434007728],[92.027862348638735,21.350180065835165],[92.028575386395531,21.347722860722254],[92.031980141684045,21.3389977895669],[92.033620128524618,21.33566037485555],[92.034760988935446,21.333402180536229],[92.036044456897642,21.330745436833841],[92.036828798430093,21.328752847486601],[92.037470532411177,21.326627389025532],[92.037755747513884,21.324834009504404],[92.037898355065238,21.322907762647013],[92.037898355065238,21.320715795818771],[92.037827051289554,21.31872307029974],[92.038112266392275,21.316763530497287],[92.03848661121458,21.314347282279456],[92.041374414129493,21.304482598773006],[92.042158755661958,21.30282181249466],[92.044297868932262,21.29923445007023],[92.045652640670127,21.296311349273463],[92.0472926275107,21.291926589080131],[92.048718703024235,21.286013599318238],[92.049021744070842,21.283297862828466],[92.04966347805194,21.268979206011377],[92.049431740781003,21.256179273912693],[92.04921782945398,21.251128767500813],[92.048148272818793,21.243419766017471],[92.047435235062039,21.236906674660872],[92.047720450164746,21.23398233596328],[92.049217829453966,21.225208971922033],[92.048718703024207,21.216634498383371],[92.049146525678282,21.21311150827222],[92.050358689864794,21.203805092297962],[92.050216082313412,21.192769581986845],[92.04978825965938,21.18585534834855],[92.049841737491136,21.185489682757076],[92.049913041266791,21.185124016261096],[92.050055648818173,21.184741727593686],[92.05028738608911,21.184193224735409],[92.054191267807425,21.176164904599645],[92.057756456591278,21.16905041820193],[92.058826013226437,21.167188626962474],[92.067239858756295,21.157679827839317],[92.073443287240224,21.149899446963534],[92.085279714002596,21.136399183858185],[92.092124876467594,21.1270214299849],[92.094549204840604,21.124493990587045],[92.111305592124694,21.104938135472558],[92.121288120719484,21.0922321005119],[92.13134195308993,21.080589491272146],[92.148668770579434,21.061094395319941],[92.155656540595771,21.053375494299466],[92.174552041150179,21.031614024107046],[92.186388467912565,21.016239326537491],[92.187885847201784,21.013909688597078],[92.189383226490989,21.010914386349498],[92.200292704169584,20.977229737903603],[92.204357019383139,20.964113304460216],[92.2053196203548,20.960317979636731],[92.205497879793981,20.959785294761158],[92.205783094896702,20.959219315002215],[92.206103961887251,20.958753212416244],[92.212164782819798,20.94869836023631],[92.217013439565832,20.937177732337144],[92.221719488760513,20.926988230334121],[92.224286424684863,20.921926520727304],[92.227673354029534,20.915099602140543],[92.228101176683609,20.914366938745825],[92.245107127182564,20.891552674124767],[92.250668821685366,20.883358675656794],[92.256943553944936,20.874831113072105],[92.25929657854229,20.871166777335304],[92.277122522461525,20.841848875656588],[92.29238153045641,20.813658325497961],[92.306570981816108,20.786129130507994],[92.307569234675597,20.784595879970865],[92.31106311968378,20.779529376145756],[92.317979585924419,20.770395906928645],[92.320903040727202,20.766595687702175],[92.323327369100198,20.764528861679267],[92.335805529843697,20.755527838130593],[92.339941148832935,20.753527537889507],[92.342365477205959,20.752860765261694],[92.344433286700607,20.752727410383294],[92.345788058438444,20.752727410383301]]}}
]
}
