{
"type": "FeatureCollection",
"name": "reference lines (manual)",
"crs": { "type": "name", "properties": { "name": "urn:ogc:def:crs:OGC:1.3:CRS84" } },
"features": [
{"type":"Feature","properties":{"fid":1,"src_year":1989,"src_sensor":"L5"},"geometry":{"type":"LineString","coordinates":[[91.953363566800277,21.465953442151687],[91.953354937981729,21.465684427451002],[91.95307018697001,21.465411397097714],[91.95307018697001,21.465134351069224],[91.952789750367529,21.464865334856331],[91.952500684946557,21.464600333325212],[91.952207305116275,21.464323285754652],[91.951922554104542,21.464050252850942],[91.951637803092822,21.463777219435666],[91.951642117502061,21.462785461402785],[91.951655060729877,21.461613010002257],[91.951948440560159,21.459432707148217],[91.951978641425029,21.45726441782146]]}},
{"type":"Feature","properties":{"fid":2,"src_year":1989,"src_sensor":"L5"},"geometry":{"type":"LineString","coordinates":[[91.975110346718864,21.421643643939696],[91.975399412139879,21.421105450589298],[91.975675534333064,21.420828320403935],[91.975981857391147,21.420294140447002],[91.976262293993614,21.420008975910687],[91.976564302642402,21.419474792956983],[91.976861996881937,21.418944624484702],[91.977138119075121,21.418647407984178],[91.977448756542486,21.418113220050749],[91.97832026721477,21.417048854810318],[91.978600703817207,21.416771716927954],[91.978894083647489,21.416229489115644]]}},
{"type":"Feature","properties":{"fid":3,"src_year":1989,"src_sensor":"L5"},"geometry":{"type":"LineString","coordinates":[[92.034226382517957,21.318173720906486],[92.03425226897356,21.317659262410409],[92.033976146780375,21.317217148200118],[92.033984775598896,21.315834527896602],[92.034278155429192,21.315135174296628],[92.034537019985294,21.314604627964464],[92.034528391166745,21.313905268506957],[92.034839028634124,21.313021016149239],[92.034890801545345,21.312233223200373],[92.035158294920024,21.312201068296375],[92.035149666101475,21.310159217475338],[92.035443045931743,21.308430856999497],[92.035788198673202,21.308145474592635],[92.035909002132755,21.307630980965421],[92.035926259769823,21.307076290504956],[92.036090207322033,21.306754729858689],[92.036607936434265,21.305982981435935]]}},
{"type":"Feature","properties":{"fid":4,"src_year":1989,"src_sensor":"L5"},"geometry":{"type":"LineString","coordinates":[[92.047687339436195,21.203610058491879],[92.047704597073249,21.201228821038782],[92.047428474880064,21.200649595312981],[92.047445732517119,21.198397029232538],[92.047221383235183,21.19833266969697],[92.047221383235183,21.197640802918666],[92.046910745767832,21.197447723239478],[92.046928003404901,21.19559736351745],[92.04666913884877,21.195484732177462],[92.046686396485853,21.193457353376026]]}},
{"type":"Feature","properties":{"fid":5,"src_year":1989,"src_sensor":"L5"},"geometry":{"type":"LineString","coordinates":[[92.254597779142145,20.872323960531382],[92.254589150323625,20.872082083331325],[92.254899787790976,20.872057895589901],[92.254882530153907,20.871525764293612],[92.255167281165598,20.871525764293608],[92.255167281165598,20.870977505835597],[92.255434774540262,20.870969443196298],[92.255426145721742,20.870469558714404],[92.255771298463245,20.870437308045567],[92.255762669644696,20.870147051714582],[92.256021534200812,20.870138989030714],[92.256030163019332,20.869872920220541],[92.256314914031094,20.869606850939306],[92.256297656393997,20.86935690663994],[92.256599665042813,20.869115024664119],[92.256634180316937,20.868840891287558],[92.25691893132867,20.868558694642292],[92.25716916706628,20.868308748599734],[92.257177795884829,20.868042676549241],[92.257462546896562,20.868002362561114],[92.257479804533631,20.867518593860058],[92.257755926726801,20.867462154076829],[92.257790442000953,20.866954195074133],[92.258057935375618,20.866930006507364],[92.258075193012687,20.866647806274226],[92.258316799931748,20.86612371872128],[92.2583513152059,20.865849579888739],[92.258644695036139,20.865833454059498],[92.258653323854688,20.865583503484899],[92.258920817229352,20.865285174835687]]}},
{"type":"Feature","properties":{"fid":6,"src_year":2006,"src_sensor":"L5"},"geometry":{"type":"LineString","coordinates":[[91.946963140650155,21.466716316959683],[91.946738791368162,21.466716316959683],[91.946712904912559,21.466459349049423],[91.946462669174991,21.466451318794913],[91.946428153900825,21.466170259608642],[91.946152031707641,21.466162229338206],[91.946152031707641,21.465905260450736],[91.946117516433489,21.465616169910621],[91.945996712973979,21.465335109113418],[91.946013970611048,21.464291164263098],[91.946134774070543,21.463986009740417],[91.946126145252038,21.463696915392614],[91.946143402889106,21.463431911736652],[91.946177918163258,21.463199029338114],[91.946454040356429,21.462909933429088],[91.946462669174991,21.462628867412157],[91.94644541153788,21.462367877053929]]}},
{"type":"Feature","properties":{"fid":7,"src_year":2006,"src_sensor":"L5"},"geometry":{"type":"LineString","coordinates":[[91.98181062431307,21.414353767011992],[91.982095375324803,21.414345733889082],[91.982095375324803,21.414104739996713],[91.982397383973606,21.413815546801125],[91.982682134985325,21.41354241936855],[91.982984143634155,21.413261258242844],[91.982966885997087,21.413028295757371],[91.98325163700882,21.412731067219379],[91.983346554012712,21.412490070663583],[91.983545016839059,21.412490070663583],[91.983838396669341,21.412184807788933],[91.983855654306396,21.411959876841618],[91.984123147681061,21.411646579587945],[91.984442413966946,21.411381481387071],[91.984684020886007,21.411092282801217],[91.98470990734161,21.410835216911039],[91.985020544808961,21.410562083907188],[91.985322553457735,21.410305017084255],[91.985322553457735,21.410064016527013],[91.985581418013865,21.410039916449435],[91.985590046832399,21.409790882081658],[91.985883426662681,21.409517747125761],[91.986194064130018,21.409244611659336],[91.986185435311469,21.408979509100771],[91.986461557504654,21.408987542518709],[91.986487443960257,21.408449302540891],[91.986772194972019,21.408425202197009],[91.986763566153485,21.408152064688544],[91.986763566153485,21.407894993626019],[91.987056945983753,21.407919094057338],[91.987074203620821,21.407380850144357],[91.987358954632555,21.407348716116697],[91.987350325813992,21.407107710684024],[91.987635076825754,21.407083610118903],[91.987635076825754,21.406537329576729],[91.98795434311161,21.406521262471053],[91.987928456656007,21.406248121404239],[91.988230465304824,21.406256154972308]]}},
{"type":"Feature","properties":{"fid":8,"src_year":2006,"src_sensor":"L5"},"geometry":{"type":"LineString","coordinates":[[92.038985175941221,21.300857986720668],[92.039287184590052,21.300857986720679],[92.039278555771489,21.300600727372373],[92.039580564420291,21.300576609285361],[92.039571935601771,21.30031131006718],[92.039873944250559,21.300303270689458],[92.039856686613504,21.299788749600268],[92.040141437625223,21.29977267078721],[92.040132808806703,21.299515409538923],[92.040443446274011,21.299499330695969],[92.040452075092574,21.298992846241923],[92.040736826104293,21.298944609536218],[92.040762712559911,21.298422044209588],[92.041047463571644,21.298397925765038],[92.041021577116027,21.297931635059136],[92.041340843401912,21.297899477024881],[92.041306328127746,21.297352789366116],[92.041591079139508,21.297328670746111],[92.041634223232194,21.297079444774177],[92.041901716606816,21.296806099673894],[92.041884458969761,21.296291566341363],[92.041901716606816,21.295728793446496],[92.041927603062433,21.29409673986682],[92.042212354074181,21.293839468683707],[92.042203725255646,21.293300805685771],[92.042505733904463,21.293043533109692]]}},
{"type":"Feature","properties":{"fid":9,"src_year":2006,"src_sensor":"L5"},"geometry":{"type":"LineString","coordinates":[[92.046975461906754,21.269436859090177],[92.046725226169158,21.268713161426668],[92.046690710895035,21.268367393509067],[92.046440475157425,21.26808595390677],[92.046405959883288,21.267571320099535],[92.046414588701808,21.266735036325382],[92.046397331064753,21.265657509842914],[92.046414588701808,21.265134826245756],[92.046733854987707,21.264861421778804],[92.046742483806256,21.264588016804108],[92.046751112624762,21.26428244593744],[92.046751112624762,21.264033163971202],[92.047009977180878,21.26377584020851],[92.047061750092098,21.262489214649026],[92.046794256717433,21.262223846728801],[92.046785627898913,21.260559255229449],[92.046500876887194,21.2602858422661],[92.046267898786681,21.260004387214735],[92.046224754693981,21.259200226960978],[92.046207497056912,21.258098520284445],[92.045983147774919,21.257809019352422],[92.045957261319316,21.257551684712887],[92.045905488408096,21.256964638383614],[92.045646623851965,21.256795761608938],[92.045629366214911,21.256152419741046]]}},
{"type":"Feature","properties":{"fid":10,"src_year":2006,"src_sensor":"L5"},"geometry":{"type":"LineString","coordinates":[[92.314473150972404,20.763064761248376],[92.314468836563108,20.762814640184768],[92.314762216393405,20.762810605970682],[92.314757901984137,20.762532244938004],[92.315059910632925,20.762536279159534],[92.315055596223672,20.76228212299306],[92.315336032826139,20.762261951850441],[92.315344661644659,20.76200779522264],[92.315612155019323,20.761987624043385],[92.315616469428576,20.761733466954269],[92.315901220440338,20.761447035436795],[92.315918478077407,20.761209014467067],[92.316185971452029,20.761196911695865],[92.316198914679831,20.760914513426382],[92.316483665691564,20.760918547691084],[92.316492294510113,20.760656320261099],[92.316777045521846,20.760652285989401],[92.316777045521846,20.760386023818629],[92.316789988749633,20.760131864036264],[92.317074739761381,20.760111692606657],[92.317087682989168,20.75984542948359],[92.31735086195458,20.759575131591031],[92.317657185012635,20.759300798907333],[92.317670128240437,20.759034534355834],[92.317941936024383,20.75903453435583],[92.31794625043365,20.758776337979185],[92.318243944673199,20.758768269335295],[92.318515752457117,20.75850200384577],[92.318796189059583,20.758231703550884],[92.319089568889851,20.757949299741458],[92.319382948720133,20.757674964107121],[92.319404520766454,20.757408696691794],[92.319667699731824,20.757408696691805],[92.319693586187441,20.75713032571068],[92.319693586187441,20.756872126081571],[92.319961079562106,20.756872126081579],[92.319974022789907,20.756601822872359],[92.320263088210936,20.756593754112416],[92.32025877380164,20.7563395879538],[92.320552153631908,20.756335553566874],[92.320547839222655,20.756085421367846],[92.320854162280739,20.756073318186431],[92.321130284473924,20.755807047950093],[92.321415035485643,20.755786875943386],[92.32141072107639,20.75552060520257],[92.321708415315939,20.755520605202573],[92.321708415315939,20.755250299576893],[92.321980223099857,20.755262402824197],[92.321993166327658,20.754996131159668],[92.322299489385728,20.754717755736248]]}},
{"type":"Feature","properties":{"fid":11,"src_year":2009,"src_sensor":"L5"},"geometry":{"type":"LineString","coordinates":[[91.946475612402679,21.456413154676383],[91.946773306642214,21.456148137776943],[91.946760363414427,21.455883120395708],[91.947066686472496,21.455875089558468],[91.947058057653948,21.455353084187951],[91.947364380712031,21.455059957275807],[91.947649131723765,21.454815015157475],[91.947653446133003,21.454525902619434],[91.947933882735484,21.454529918075277],[91.947942511554032,21.454264897752392],[91.948231576975019,21.453979799594439],[91.948520642396048,21.453726824705779],[91.948809707817034,21.453722809227827],[91.948826965454117,21.45346180292308],[91.949081515600952,21.453188749673426],[91.949120345284399,21.452915695912399],[91.949400781886837,21.452919711412584],[91.949409410705385,21.45265067265532],[91.949720048172736,21.452650672655324],[91.949698476126372,21.452377617886619],[91.949978912728852,21.452369586856275],[91.949987541547387,21.452112593651524],[91.950280921377669,21.452092516038327],[91.95027229255912,21.45183953787518],[91.950561357980106,21.451839537875177],[91.950561357980106,21.45157451266207],[91.950859052219641,21.451566481587484],[91.950867681038176,21.451309486967283],[91.951148117640614,21.451297440333349],[91.951161060868458,21.451020367478133],[91.951441497470896,21.451016351925638],[91.951428554243094,21.450763371895427],[91.951445811880149,21.450474251323499],[91.951717619664066,21.450217254778327],[91.951743506119684,21.449952226616734],[91.952028257131445,21.449940179870666],[91.952036885949965,21.449683182384277],[91.95230437932463,21.449675151205525],[91.952597759154912,21.449414137655449],[91.952615016791967,21.449157139242004],[91.952899767803686,21.448876046708722],[91.952899767803686,21.448607000490814],[91.952925654259303,21.447811905781915],[91.953197462043263,21.447787811935189],[91.953490841873503,21.447530810655785],[91.953495156282798,21.447245699331557],[91.953779907294532,21.446984681433381],[91.953805793750149,21.446719647397249],[91.954064658306251,21.446715631726331],[91.954077601534067,21.446426503129679],[91.954349409317985,21.44643855016599],[91.954358038136533,21.446173515137467]]}},
{"type":"Feature","properties":{"fid":12,"src_year":2009,"src_sensor":"L5"},"geometry":{"type":"LineString","coordinates":[[92.017747496316161,21.363884998108084],[92.017751810725414,21.363611777435512],[92.018032247327881,21.363615795390274],[92.018023618509361,21.363089442378303],[92.018338570385964,21.363077388470376],[92.018321312748895,21.362804166291404],[92.018334255976711,21.36252290763365],[92.018623321397698,21.362542997555689],[92.018636264625499,21.362000568693635],[92.018890814772348,21.362000568693645],[92.018899443590911,21.361470191864186],[92.019205766648952,21.361470191864203],[92.019210081058233,21.361184912623855],[92.019494832069967,21.361196966687494],[92.019490517660714,21.360646496769235],[92.0197795830817,21.360373270056275],[92.019792526309502,21.359846905393415],[92.020068648502686,21.35983083316021],[92.020094534958304,21.359561622991997],[92.02037497156077,21.359565641057845],[92.020370657151517,21.359023201171492],[92.020370657151517,21.358762025695125],[92.020664036981756,21.358758007607236],[92.020672665800305,21.358207528524847],[92.020983303267641,21.357946351594453],[92.02097036003984,21.357665083610303],[92.021246482233053,21.357677137963556],[92.021250796642306,21.357146745482272],[92.021552805291094,21.357134691085388],[92.021561434109643,21.356588224051624],[92.021837556302813,21.356323026080148],[92.021837556302813,21.356053809466651],[92.022130936133109,21.356053809466637],[92.022126621723842,21.355784592358525],[92.022415687144829,21.355519392932614],[92.022420001554124,21.355246156658463],[92.022709066975096,21.355250174842645],[92.022717695793659,21.354968901683048],[92.022726324612194,21.354719773576509],[92.023019704442447,21.354695664382437],[92.023019704442447,21.354173297536828],[92.023308769863462,21.354153206467114],[92.023308769863462,21.3536348559164],[92.023597835284463,21.353626819459318],[92.023602149693701,21.353076321100325],[92.023895529523983,21.353080339344015],[92.023904158342532,21.35256198499858],[92.02417596612645,21.352541893707969],[92.024197538172771,21.35226865188228]]}},
{"type":"Feature","properties":{"fid":13,"src_year":2009,"src_sensor":"L5"},"geometry":{"type":"LineString","coordinates":[[92.102603297811967,21.110681184591517],[92.102888048823701,21.110665085175608],[92.102879420005195,21.110391394837677],[92.103172799835463,21.110399444560706],[92.103185743063236,21.109860112152628],[92.103474808484251,21.109852062400346],[92.103470494074998,21.109574345679352],[92.103466179665702,21.109304678221068],[92.103768188314532,21.109304678221065],[92.103755245086717,21.109018910678301],[92.104044310507717,21.108773391645773],[92.104342004747252,21.108511772557598],[92.104359262384349,21.108262227766833],[92.104626755758986,21.10825015300826],[92.104644013396083,21.107980483143965],[92.104911506770748,21.107964383435075],[92.104928764407816,21.107674588376447],[92.10523077305659,21.107437117003833],[92.105226458647351,21.107163420713263],[92.105502580840508,21.107143295966097],[92.105524152886872,21.106901798787259],[92.10579596067079,21.106893748874551],[92.105804589489338,21.10662810150961],[92.106080711682523,21.106370503610805],[92.106374091512805,21.106362453669263],[92.106369777103538,21.106096805353481],[92.106658842524538,21.10582713157698],[92.106947907945539,21.105553432317777],[92.106978108810424,21.105279732553914],[92.10725854541289,21.105279732553917],[92.107254231003594,21.105006032285438],[92.107538982015328,21.105006032285434],[92.107551925243115,21.10474440655705],[92.107832361845595,21.10474440655705],[92.107836676254891,21.10445460521197],[92.108125741675877,21.104466680279312],[92.108134370494426,21.104188953482012],[92.108414807096892,21.104188953482012],[92.108414807096892,21.103919276239598],[92.108440693552495,21.103661673640108],[92.108712501336427,21.103649598507296],[92.108708186927146,21.103371870181398],[92.109014509985229,21.103379920285118],[92.109014509985229,21.103082066156965],[92.109299260996949,21.103110241573056],[92.109299260996949,21.102852637569772],[92.10958401200871,21.102852637569764],[92.109579697599429,21.102558807457807],[92.109868763020444,21.102578932826493],[92.109881706248245,21.102321327901308],[92.11015782844143,21.102313277740187],[92.110162142850683,21.102031521826206],[92.110455522680965,21.102035546914447],[92.110442579453164,21.101765865760409],[92.110735959283431,21.101500209219292]]}},
{"type":"Feature","properties":{"fid":14,"src_year":2009,"src_sensor":"L5"},"geometry":{"type":"LineString","coordinates":[[92.210062289466336,20.947484539524574],[92.210049346238534,20.947222637167911],[92.210338411659507,20.947214578626589],[92.210342726068802,20.94695670507528],[92.210351354887351,20.94668271394022],[92.210640420308337,20.946682713940213],[92.210631791489789,20.946428868764549],[92.210916542501508,20.946416780888299],[92.210920856910803,20.946126671565533],[92.210933800138605,20.945852678911059],[92.211196979103988,20.945574656440183],[92.211209922331804,20.945312750741657],[92.21149035893427,20.94504278592661],[92.211516245389888,20.944527030896538],[92.211796681992354,20.944232888560236],[92.211796681992354,20.94370504264451],[92.212085747413369,20.943435074930065],[92.212081433004087,20.942903196814466],[92.212374812834312,20.942613080682229],[92.212366184015792,20.9423431109986],[92.21239207047141,20.941823317251643],[92.212672507073876,20.941557375566969],[92.212672507073876,20.941255168533708],[92.212948629267061,20.940993255278112],[92.212974515722692,20.940731341564355],[92.213250637915891,20.940473456844678],[92.213263581143707,20.939304911142436],[92.213539703336878,20.938289477816497],[92.213569904201734,20.937487602982909],[92.213854655213481,20.93720956497776],[92.213858969622777,20.936947644645635],[92.214156663862298,20.936665576083346],[92.214143720634496,20.9363955956761],[92.214441414874031,20.935855633401463]]}},
{"type":"Feature","properties":{"fid":15,"src_year":2009,"src_sensor":"L5"},"geometry":{"type":"LineString","coordinates":[[92.278111309656225,20.83477189782495],[92.278400375077211,20.834477540365221],[92.278404689486507,20.833969469971233],[92.278672182861158,20.833667046303685],[92.278680811679678,20.833150908508053],[92.27897419150996,20.8328686449027],[92.279263256930946,20.832352504370245],[92.279565265579777,20.832058142180593],[92.279565265579777,20.831787973637088],[92.279850016591496,20.831525869362952],[92.279854331000749,20.831243602711389],[92.280139082012468,20.830965367922737],[92.280143396421764,20.830416961616706],[92.280423833024201,20.830158887369869],[92.280428147433497,20.829888715418875],[92.280725841673032,20.8296145105551],[92.280717212854483,20.8293362727565],[92.281010592684765,20.829078196657704],[92.281010592684765,20.828549945763935],[92.281308286924329,20.828553978220526],[92.281308286924329,20.828275738462601],[92.281562837071164,20.827993465719175],[92.281575780298965,20.827723289883519],[92.28186484571998,20.827469243506371],[92.281886417766302,20.827195034237477],[92.282171168778063,20.826920824469362],[92.282188426415118,20.826642581694379],[92.282460234199036,20.826364338405387],[92.282460234199036,20.826102224691979],[92.282753614029289,20.825828012934391]]}},
{"type":"Feature","properties":{"fid":16,"src_year":2022,"src_sensor":"L9"},"geometry":{"type":"LineString","coordinates":[[91.945522127954376,21.467519338758191],[91.945246005761149,21.467250326948676],[91.94522874812408,21.466969269303679],[91.94495262593091,21.466973284416706],[91.94495262593091,21.466708286719296],[91.944663560509923,21.466439273412302],[91.944672189328443,21.466182305013405],[91.944378809498161,21.465889199880184],[91.944387438316724,21.464520029735716],[91.944693761374793,21.464246997200636],[91.94468944696554,21.463716991407473],[91.944698075784046,21.462636897877271],[91.944978512386527,21.462363861813941],[91.944991455614328,21.461821803407641],[91.945284835444596,21.461544750554758],[91.945271892216809,21.461018750210918],[91.945569586456344,21.461018750210933],[91.945586844093413,21.459942651990072],[91.945862966286612,21.459934621376476],[91.945875909514427,21.459392553935224]]}},
{"type":"Feature","properties":{"fid":17,"src_year":2022,"src_sensor":"L9"},"geometry":{"type":"LineString","coordinates":[[91.956998456609014,21.443746012811836],[91.95727889321148,21.443476957130851],[91.957287522029986,21.44322195613934],[91.957567958632467,21.443209908837385],[91.95757227304172,21.442946875829811],[91.957861338462735,21.442946875829822],[91.957867810076635,21.442671795001587],[91.958146089474482,21.442675810783829],[91.958161189906917,21.442404745234164],[91.958452412532566,21.442400729444461],[91.958445940918637,21.442131671282272],[91.958737163544285,21.441868636330593],[91.959027307567595,21.441588533704156],[91.959029464772243,21.441321481953793],[91.959316372988582,21.441327505682871],[91.959322844602511,21.441054429714598],[91.959614067228117,21.441056437627999],[91.959620538842046,21.440789384903642],[91.959905289853765,21.440520323769718],[91.96019219807016,21.440241222516939],[91.96019219807016,21.439974168300406],[91.960474791877218,21.439972160372111],[91.96048989230971,21.439711129458903],[91.960781114935315,21.439707113595063],[91.960778957730696,21.439440058400923],[91.960783272139977,21.439175010657255],[91.961074494765583,21.439170994778653],[91.961074494765583,21.438897914774095],[91.961363560186612,21.438899922717173],[91.961363560186612,21.438630858098868],[91.961648311198346,21.438359785033921]]}},
{"type":"Feature","properties":{"fid":18,"src_year":2022,"src_sensor":"L9"},"geometry":{"type":"LineString","coordinates":[[92.046618444539732,21.283016586781496],[92.046350951165067,21.282751255873979],[92.046338007937266,21.281657765870907],[92.046342322346518,21.280841663255103],[92.046359579983616,21.279486842511577],[92.046092086608951,21.278968228301579],[92.046169745975789,21.278401368817974],[92.046070514562601,21.277870689875147],[92.046083457790402,21.277319907432901],[92.045803021187936,21.277054566250339],[92.04581165000647,21.274839350734947],[92.045805178392555,21.274350873134409],[92.04609424381357,21.274073465380095],[92.046089929404317,21.273810128549759],[92.046102872632147,21.27353070956563],[92.04638115202998,21.273255310479392],[92.046385466439233,21.272979910877748]]}},
{"type":"Feature","properties":{"fid":19,"src_year":2022,"src_sensor":"L9"},"geometry":{"type":"LineString","coordinates":[[92.092698492733575,21.122814616339689],[92.092989715359209,21.122540948414382],[92.09299834417773,21.122277341332374],[92.093285252394082,21.122271304523498],[92.093287409598744,21.122007696962235],[92.093574317815097,21.121734027547991],[92.093576475019731,21.121476455873299],[92.093861226031464,21.121472431312334],[92.093859068826816,21.121200773194651],[92.093869854849999,21.120935151442946],[92.094161077475619,21.120925090003603],[92.094163234680252,21.120669529215558],[92.094445828487352,21.120665504632694],[92.094445828487352,21.12039585733223],[92.09473920831762,21.120116148047366],[92.094749994340802,21.11986662277257],[92.095036902557155,21.119850524353325],[92.095317339159635,21.119588924795814],[92.095608561785241,21.119313238608978],[92.095617190603775,21.119053650417236],[92.095901941615509,21.11904560116373],[92.095910570434057,21.118767901649932],[92.096191007036495,21.118775950918526],[92.096195321445748,21.118508312503891],[92.096480072457467,21.118512337145273],[92.096477915252848,21.118230611984281],[92.096777766697045,21.118234636633201],[92.096779923901664,21.117969009569979],[92.097049574480963,21.11796900956999],[92.097062517708778,21.117691308040815],[92.097349425925131,21.117697345036103],[92.097360211948313,21.117427692340129],[92.09763417693685,21.117417630662885],[92.097644962960047,21.117154014475872],[92.097938342790314,21.117147977458462],[92.097934028381047,21.116890397820441],[92.098220936597414,21.116612694272188]]}},
{"type":"Feature","properties":{"fid":20,"src_year":2022,"src_sensor":"L9"},"geometry":{"type":"LineString","coordinates":[[92.331783639560442,20.756631072123522],[92.33179226837899,20.756368837255678],[92.332064076162908,20.756364802869555],[92.332077019390709,20.75611063632601],[92.332374713630244,20.756102567539845],[92.332370399220991,20.75584033175527],[92.332637892595613,20.755844366155394],[92.332646521414162,20.755570026701243],[92.332935586835191,20.755561957886236],[92.332961473290794,20.755291652334499],[92.333207394619109,20.75529165233451],[92.333518032086445,20.755037483986797],[92.333828669553782,20.754759108639512],[92.334087534109912,20.754759108639512],[92.334113420565515,20.754484767216098],[92.334387385554066,20.754500904960668],[92.334680765384334,20.754490818870508],[92.334676450975039,20.754220511403741],[92.334956887577519,20.754220511403748],[92.334969830805321,20.753956255129516],[92.335267525044856,20.753950203453716],[92.335263210635603,20.753687963935903],[92.335550118851955,20.753683929478232],[92.335830555454436,20.753679895020444],[92.335832712659055,20.753415637801378],[92.336113149261536,20.753411603336435],[92.336126092489323,20.753147345648483],[92.33640437188717,20.753141293940281],[92.336417315114943,20.752879053019516],[92.336704223331338,20.752870984060909],[92.336982502729143,20.752877035779917],[92.336997603161578,20.752602690941586],[92.337265096536242,20.752604708184865],[92.337580048412875,20.752336414593096],[92.337856170606045,20.752332380099357],[92.338147393231708,20.752064086024379],[92.338431065641103,20.752071146400883],[92.338442930266609,20.751792765592292],[92.338727681278328,20.751796800100422]]}},
{"type":"Feature","properties":{"fid":21,"src_year":2023,"src_sensor":"S2"},"geometry":{"type":"LineString","coordinates":[[91.942835329582209,21.465792836419908],[91.942740412578317,21.465792836419908],[91.942742569782951,21.465706510765962],[91.942645495574425,21.465704503192018],[91.942645495574425,21.465618177485748],[91.942561364593672,21.465606132034292],[91.942554892979771,21.465521813846244],[91.942468604794399,21.465427457720814],[91.942468604794399,21.464979767186605],[91.942457818771217,21.464805107277865],[91.942548421365856,21.464618401626655],[91.942559207389039,21.464522037325974],[91.942560285991334,21.464085385789947],[91.942654124392973,21.4639885192374],[91.94265196718834,21.463894664018827],[91.942674617837,21.463604565688382],[91.942756591613133,21.463443957367783],[91.942811600331282,21.463358634125473],[91.942818071945155,21.463266284206913],[91.942853665821659,21.463172428523187],[91.942857980230897,21.463090116536911],[91.942950200729015,21.46299676264254],[91.942951279331325,21.462904412494666],[91.943048353539879,21.462815073708946]]}},
{"type":"Feature","properties":{"fid":22,"src_year":2023,"src_sensor":"S2"},"geometry":{"type":"LineString","coordinates":[[91.968571320170881,21.42908426495076],[91.968577791784796,21.429005949883447],[91.968672708788688,21.429005949883443],[91.968672708788688,21.428915586292025],[91.968761154178708,21.428916590332236],[91.968766547190299,21.428827230726352],[91.968863621398825,21.428829238807985],[91.968869014410416,21.428739879148623],[91.968869014410416,21.428650519434559],[91.968960695607379,21.428646503266343],[91.969058848418229,21.428555135409756],[91.9690620842252,21.428470795799072],[91.969155922626754,21.428380431876406],[91.969250839630689,21.428378423788612],[91.969255154039956,21.428289063853285],[91.969352228248511,21.428203720043793],[91.969446066650079,21.428117372138693],[91.969449302457036,21.428016967533658],[91.969545298063281,21.428018975626426],[91.96954961247252,21.427928611424107],[91.969640215067173,21.427928611424118],[91.969644529476454,21.42784427145148],[91.969737289275727,21.42784326740389],[91.969740525082656,21.427749890948146],[91.969836520688872,21.427749890948142],[91.969839756495844,21.427657518481546],[91.969931437692807,21.427661534676954],[91.969934673499765,21.427572174302849]]}},
{"type":"Feature","properties":{"fid":23,"src_year":2023,"src_sensor":"S2"},"geometry":{"type":"LineString","coordinates":[[92.001566304354,21.387556830011171],[92.001571697365591,21.387470458086646],[92.001661221357921,21.387470458086657],[92.001661221357921,21.387385090436737],[92.001764767180362,21.387380068808724],[92.001761531373404,21.387287670822452],[92.00184997676341,21.387197281431575],[92.00185644837731,21.387107896312362],[92.001857526979649,21.387012485169784],[92.001956758392794,21.386929125910076],[92.002052753999024,21.386843757944277],[92.002149828207578,21.386837731968335],[92.002150906809874,21.386665991549748],[92.002241509404513,21.386574597443641],[92.002341819419996,21.386570580118995],[92.002348291033911,21.38647918595327],[92.002437815026227,21.386388796062892],[92.002443208037818,21.386293384451353],[92.002442129435508,21.38620701178094],[92.002539203644048,21.386123652062295],[92.002630884841025,21.386118630390975],[92.002635199250278,21.386035270621974],[92.00273011625417,21.385937850108856],[92.002733352061142,21.385848464220157],[92.002737666470381,21.385762091287081],[92.002831504871992,21.385667683604225],[92.002836897883583,21.38558030622643],[92.002930736285194,21.385488911442128],[92.002930736285194,21.385402538296788],[92.003029967698367,21.385310139061602],[92.003027810493734,21.385219748448979],[92.003123806099978,21.38513437948578],[92.003220880308504,21.385036958372787],[92.003224116115462,21.384951589302943],[92.003316875914734,21.384859189782969],[92.003324426130945,21.384769803235294],[92.003324426130945,21.384681420977163],[92.003420421737175,21.38467740360052],[92.003418264532556,21.384590025631354],[92.003421500339513,21.384501643264635],[92.00351533874111,21.38440924346051],[92.003612412949636,21.384318852291322],[92.003613491551974,21.384232478455274],[92.003706251351247,21.384228461066304],[92.003709487158204,21.384141082829036],[92.003804404162096,21.384054708888041],[92.003901478370679,21.384050691494199],[92.003903635575298,21.383960300103517],[92.004001788386176,21.383871917356402],[92.004102098401674,21.383778512804295],[92.004192700996313,21.383691134298317],[92.00419809400789,21.383605764443267],[92.004291932409501,21.3835073379603],[92.00439116382266,21.383420963645207],[92.00439116382266,21.383329567512103],[92.004490395235848,21.383245201800097],[92.004494709645101,21.38315179684793],[92.004587469444374,21.383065422322964],[92.004679150641337,21.383060400546679],[92.004684543652928,21.382979047747],[92.00477946065682,21.382881625198991],[92.004783775066088,21.382797259228727],[92.004876534865346,21.382787215657608],[92.004880849274642,21.382701845275179],[92.004977923483168,21.38260442254262],[92.005066368873216,21.382613461767956],[92.005069604680159,21.382521060771502],[92.005165600286389,21.382430668435909],[92.005170993297966,21.382345297845479],[92.005263753097267,21.382338267324037],[92.005270224711168,21.382254905401307],[92.005360827305807,21.382164512901316],[92.0054557443097,21.382073115983435],[92.005461137321277,21.381983727733807],[92.005557132927507,21.381980714645799],[92.005558211529802,21.381895343792859],[92.005654207136033,21.381800933615153],[92.005658521545328,21.381715562657323],[92.005750202742263,21.381710540834732],[92.005846198348522,21.381622156728788],[92.005945429761681,21.381529755106406],[92.005947586966315,21.381447397089438],[92.006041425367911,21.381354995356698],[92.006138499576437,21.381353990989719],[92.006234495182667,21.381262593565634],[92.006327254981969,21.381173204820911],[92.006334805198193,21.381082811652757],[92.006424329190494,21.381081807283913],[92.006528953615273,21.380991414059292],[92.006531110819921,21.380907046999301],[92.006622792016884,21.380906042629242],[92.006627106426137,21.380819666778709],[92.006722023430072,21.380731282134718],[92.006820176240936,21.380726260278351],[92.006819097638598,21.380637875577943],[92.006911857437899,21.380635866834123],[92.0069183290518,21.380544468961524],[92.007013246055635,21.380547482079123],[92.007016481862593,21.380454075405016],[92.007110320264204,21.380453071031859],[92.007117870480414,21.380363681792669],[92.007207394472729,21.380364686166462],[92.007209551677377,21.38027429249891],[92.007304468681284,21.380189925025483],[92.007401542889809,21.380094509371943],[92.00749753849604,21.380093504996307],[92.007494302689111,21.380007128666239],[92.00760108431848,21.379921756661979],[92.0076895297085,21.379830358343405],[92.007694922720091,21.37974197310195],[92.007795232735575,21.379645552777639]]}},
{"type":"Feature","properties":{"fid":24,"src_year":2023,"src_sensor":"S2"},"geometry":{"type":"LineString","coordinates":[[92.188772836930113,21.004231486480087],[92.1888655967294,21.004231486480091],[92.188868832536343,21.003863955314046],[92.188965906744897,21.003864962249999],[92.188965906744897,21.003776351861433],[92.188968063949531,21.003509513441749],[92.189065138158043,21.003322222794285],[92.189155740752724,21.003148022142369],[92.189160055161977,21.003057397445353],[92.189163290968935,21.002964758809316],[92.189165448173569,21.002872120115757],[92.189259286575137,21.002786529967345],[92.189265758189052,21.002517675887781],[92.189361753795282,21.002428057753626],[92.18945559219685,21.002244793536487],[92.189459906606132,21.002066563834703],[92.189550509200785,21.001970903737497],[92.189560216621629,21.001889340869347],[92.189650819216268,21.001795694558346],[92.189711220946037,21.001615450418065],[92.189745736220161,21.001525831742139],[92.189751129231752,21.001430171298367],[92.189840653224053,21.001342566417097],[92.189848203440306,21.001249926716621],[92.189938806034945,21.001159300867027],[92.189942041841874,21.000987111601212],[92.190041273255062,21.000890443856132],[92.19004450906202,21.000718254280134],[92.190137268861292,21.000618565487461],[92.19013834746363,21.000443354720773],[92.190212771023496,21.000172482498542],[92.190235421672156,21.000083869917646],[92.190330338676077,21.000081855994733],[92.190333574483049,20.999898588896684],[92.190397212019747,20.999722370320953],[92.190426334282307,20.999632750508365],[92.19052664429779,20.999540109746633],[92.190532037309353,20.999369932545399],[92.190628032915583,20.999271249819113],[92.190629111517922,20.999181629735645],[92.190626954313288,20.999087981725772],[92.19072187131718,20.99899936850105],[92.190727264328771,20.998823148863742],[92.19082218133272,20.998729500628965],[92.19082218133272,20.99864088719141],[92.190913862529683,20.998548245814106],[92.19092033414357,20.998367997752197],[92.191014172545167,20.998279384100051],[92.1910163297498,20.998190770395304],[92.191109089549059,20.998099135713485],[92.191115561162988,20.998007500975408],[92.191207242359923,20.997919894085314],[92.191211556769218,20.997741659219177],[92.191302159363858,20.997738638287402],[92.191305395170815,20.997649017283791],[92.191401390777017,20.997555368312415],[92.191406783788594,20.997381160929812],[92.191509251008753,20.997282476888767],[92.191593381989506,20.997196883535036],[92.191597696398759,20.99701663384139],[92.191696927811947,20.996923991456065],[92.191702320823509,20.996660161739388],[92.191790766213515,20.996563491192124],[92.191884604615126,20.996475883454604],[92.191892154831336,20.996206011020494],[92.191893233433674,20.996101284272889],[92.191989229039905,20.996020725186266],[92.1919903076422,20.99584852999287],[92.192055023781265,20.995754879892022],[92.192080910236868,20.995573621465436],[92.192183377456999,20.995297705438063],[92.192283687472482,20.995119467441238],[92.192281530267849,20.995029844865289],[92.192283687472525,20.994852110047074],[92.19228422677368,20.994762487310609]]}},
{"type":"Feature","properties":{"fid":25,"src_year":2023,"src_sensor":"S2"},"geometry":{"type":"LineString","coordinates":[[92.31703968518589,20.767526024463539],[92.317041842390523,20.767440300063654],[92.317136759394415,20.767435257450384],[92.317137837996754,20.767345498905968],[92.31723167639835,20.7672567488321],[92.317233833602984,20.767167998706089],[92.317324436197623,20.767164973132701],[92.317333065016172,20.767079248527963],[92.317425824815444,20.766985455669403],[92.317520741819337,20.766986464195078],[92.317518584614703,20.766893679805232],[92.317616737425567,20.766894688331512],[92.317619973232524,20.766804929465955],[92.317714890236431,20.76671718760204],[92.317715968838755,20.766629445687165],[92.317809807240323,20.76662843715911],[92.317816278854238,20.766536661078081],[92.317907960051215,20.766533635492035],[92.317911195858144,20.766449927587619],[92.318003955657403,20.766448919058377],[92.318101029865971,20.766354117278663],[92.318105344275253,20.766270409274789],[92.318199182676821,20.766265366622481],[92.318200261279159,20.766177624445234],[92.318293021078432,20.766175607383087],[92.31829625688539,20.766090890748686],[92.318389016684662,20.766085848090363],[92.318393331093915,20.765994071679764],[92.318485012290893,20.765995080212061],[92.318487169495512,20.765911372009285],[92.318583165101742,20.765908346410718],[92.3185864009087,20.765814552825351],[92.318679160707973,20.765814552825351],[92.318679160707973,20.76572882745446],[92.318776234916498,20.765727818920393],[92.318780549325794,20.765640076431001],[92.318870073318095,20.765636042292343],[92.318872230522729,20.765549308284921],[92.318962833117368,20.765543257073244],[92.318968226128945,20.765454505940795],[92.319064221735189,20.765454505940788],[92.319065300337527,20.765369788902088],[92.31916021734142,20.765365754756218],[92.319161295943758,20.765279020593649],[92.319257291549988,20.765277003519508],[92.319261605959241,20.765185226617646],[92.319350051349247,20.765186235155333],[92.319355444360838,20.765095466736621],[92.319452518569392,20.765007723880057],[92.31954635697096,20.765007723880061],[92.31954851417558,20.764916955354114],[92.319643431179529,20.764826186773654],[92.319743741195012,20.764824169693469],[92.319740505388054,20.764736426679381],[92.319839736801242,20.764647675073057],[92.319932496600501,20.764555897788959],[92.320027413604393,20.764557914872729],[92.320032806615984,20.764469163161564],[92.320125566415257,20.764467146076605],[92.320128802222214,20.764380411398275],[92.32021832621453,20.764374360139769],[92.320224797828445,20.76428762540818],[92.320319714832351,20.764287625408173],[92.320324029241633,20.764194839361124],[92.320320793434689,20.764105078891824],[92.320415710438567,20.764105078891824],[92.320420024847834,20.764018344005663],[92.320512784647136,20.7640153183692],[92.320604465844113,20.763928583431518],[92.320700461450329,20.763838822804082],[92.320709090268849,20.763748053576034],[92.320798614261193,20.763746036481457],[92.32080292867046,20.763658292841356],[92.320895688469719,20.763655267197681],[92.320902160083634,20.763567523504861],[92.32099707708754,20.763564497859377],[92.321090915489151,20.763474737015677],[92.321093072693785,20.76338598466835],[92.321185832493086,20.763388001767744],[92.321193382709311,20.763300257919742],[92.321281828099316,20.763297232268911],[92.321288299713203,20.763213522571672],[92.321381059512461,20.763212514020811],[92.321385373921757,20.763117710210683],[92.32147597651641,20.763115693107697],[92.321479212323325,20.763027949101602],[92.321569814917993,20.763027949101605],[92.321571972122626,20.762937179386526],[92.321669046331152,20.76293717938653],[92.321664731921899,20.762853469489844],[92.321769356346636,20.762844392510313],[92.321770434948974,20.762760682562249],[92.321865351952866,20.762754631238892],[92.321863194748246,20.76267192979557],[92.321963504763758,20.76266587846867],[92.321959190354477,20.762574099981013],[92.322057343165369,20.762578134201423],[92.322147945760022,20.762486355660467],[92.322153338771614,20.762401636957822],[92.322248255775506,20.76230683263903],[92.322255805991716,20.762222113835744],[92.322348565790989,20.762130335078584],[92.322444561397219,20.762125292288118],[92.322439168385628,20.762039564824398],[92.322542714208069,20.761943751719159],[92.322636552609666,20.761854998472739],[92.322727155204319,20.761761202371574],[92.322827465219802,20.76167446614021],[92.322932089644524,20.761585712735659],[92.323016220625291,20.76158772985908],[92.323025928046135,20.761499984965887],[92.323111137629184,20.761494942154375],[92.323210369042386,20.761408205770199],[92.323215762053962,20.761321469336256],[92.323312836262488,20.761227672904003],[92.323406674664071,20.76122716862195],[92.323499434463358,20.761135389260605],[92.32360190168346,20.761047644104803],[92.323693582880423,20.761043609843536],[92.323702211698944,20.760957881766263],[92.323790657088949,20.760868119374408],[92.323886652695194,20.760777348362158],[92.323983726903748,20.760684560159955]]}}
]
}
