{
"type": "FeatureCollection",
"name": "shoreline_search_zone",
"crs": { "type": "name", "properties": { "name": "urn:ogc:def:crs:OGC:1.3:CRS84" } },
"features": [
{"type":"Feature","properties":{"fid":1,"buf":1000},"geometry":{"type":"MultiPolygon","coordinates":[[[[92.34291893534764,20.763970571124762],[92.346253213103012,20.763802028764708],[92.348124710457355,20.763591283127052],[92.349950942002479,20.763152561018607],[92.351700652781958,20.762493370794903],[92.353343898399785,20.761624993951497],[92.354852557811014,20.760562291918987],[92.356200814798044,20.759323451557066],[92.357365599872693,20.757929673717431],[92.358326985030786,20.756404810221817],[92.359068524603131,20.754774955485001],[92.359577536379035,20.753067999788282],[92.359845318210816,20.751313151863759],[92.359867296419736,20.749540438972033],[92.359643103497717,20.747780193037482],[92.359176583813095,20.746062531639648],[92.358475727262629,20.744416842742346],[92.357552532043627,20.742871281973599],[92.356422798929685,20.741452291050052],[92.355105860598982,20.740184145573792],[92.353624250668304,20.739088539923848],[92.35200331810735,20.738184216327664],[92.35027079363293,20.737486644440935],[92.348456315493749,20.737007756900507],[92.346590922741711,20.736755745358391],[92.344706524633366,20.736734920473111],[92.340309849619899,20.736957173178972],[92.338203801769708,20.73721099209294],[92.333569448779897,20.73809996978741],[92.331570915129674,20.738626826481681],[92.329673575869592,20.739418335998511],[92.327916800333611,20.740458075103881],[92.323816981229129,20.743291670044556],[92.32257934606568,20.744251221344946],[92.321462737448144,20.745334217319694],[92.319877434024121,20.747053718043908],[92.318549813406392,20.747823428896389],[92.317113086571339,20.748917974583058],[92.312181307966867,20.753195936741356],[92.311553409828107,20.753774891114748],[92.306621558079144,20.758608302810838],[92.305271375336332,20.760142837816545],[92.304174877599024,20.761846933308295],[92.30335575481223,20.76368378547124],[92.303171297962749,20.764201073627358],[92.302237859825127,20.765622256308458],[92.298971907960109,20.769876839882045],[92.293680201858976,20.776582742283704],[92.292869610663232,20.777726904933441],[92.292186435490493,20.778942412732288],[92.290066699769099,20.783226565433438],[92.285025028303124,20.792758731016654],[92.281095251223135,20.799618724454014],[92.280650561136639,20.80046414923952],[92.278931585066616,20.804040080157044],[92.274668529510251,20.812008517850686],[92.274559442203895,20.81221683545786],[92.270582190752577,20.819978574354366],[92.267086403622784,20.826458647475004],[92.263415764572699,20.832949436373084],[92.256895978645218,20.843502080119197],[92.256794466596219,20.843669086580558],[92.250961476035215,20.853424767318568],[92.245728800937584,20.861572998437261],[92.245418279701752,20.862081007640811],[92.242362280121981,20.867340372124303],[92.237104828753729,20.874630376643239],[92.237035761552136,20.874727030880784],[92.232211832112412,20.881540409690924],[92.22837040186127,20.886501021068835],[92.223222061776653,20.893079150538625],[92.222798194362554,20.893650936692683],[92.218344672999947,20.900000300123864],[92.213654979955905,20.906461325052295],[92.212911879406391,20.90760217365245],[92.212292069367905,20.90880629392667],[92.210026924982216,20.913824397331094],[92.207355360423264,20.918374209143064],[92.206479056727503,20.920162547516082],[92.204220046416381,20.925822249025021],[92.201161924104142,20.932104893121174],[92.200587020360047,20.933479381046862],[92.199245916557672,20.937282417692519],[92.195784543871639,20.944261818949364],[92.192322467845386,20.949818022693101],[92.192144550774174,20.950111891024321],[92.190480639949683,20.952941690347878],[92.189770143899366,20.954331327863066],[92.189232238306204,20.95578776830844],[92.188873887689525,20.957292168023841],[92.188515722451612,20.959335029564727],[92.185880088659758,20.966962467019155],[92.185651046339856,20.967694907968525],[92.183398421426489,20.97572818415712],[92.180263190024505,20.985483066802932],[92.180098180847608,20.986038948527529],[92.178471168937691,20.992008275005862],[92.174826300626691,21.002894109536609],[92.173254076152887,21.006919993431072],[92.169318944726029,21.01228163413224],[92.164122794236619,21.018676993240845],[92.163989708404145,21.018843418621852],[92.159230705729286,21.024890430667288],[92.153154656698931,21.031991934756483],[92.140897508922137,21.045685130524657],[92.140842694372154,21.045746728717333],[92.130479298819509,21.057461720337837],[92.122493088777347,21.066348516755635],[92.12212521825748,21.066775068622835],[92.114487259103569,21.076006769127289],[92.110367316697307,21.080535027874646],[92.110071553865225,21.080870874203079],[92.104307678838168,21.087634005680055],[92.103211206549616,21.089112056207679],[92.100094837356366,21.093972380812609],[92.094323710215747,21.100076955658981],[92.093875729185271,21.100574370413405],[92.089428478419066,21.105759885731086],[92.084447749602404,21.11138960111667],[92.084331448137732,21.111522761632237],[92.077498000840293,21.119448363880188],[92.076696606018999,21.120472451787514],[92.070587809711284,21.129098381613193],[92.065694586188513,21.135151030353814],[92.060417205617981,21.140374013380608],[92.058804111540681,21.14229007778745],[92.054668149118726,21.148234219860566],[92.051482455912208,21.151084514080157],[92.050115525474453,21.152492368886801],[92.045124119774741,21.158421123165834],[92.044179122701806,21.15968544684813],[92.043393572228126,21.161042400266197],[92.042777670326288,21.162474368094173],[92.041374397188335,21.166361781490469],[92.040752680508859,21.167184550479234],[92.039484024070717,21.169217468742534],[92.036096660905713,21.175921394580762],[92.035885249566221,21.176359713619554],[92.034458958327178,21.179462262490979],[92.033807092293969,21.18119469600208],[92.033411038966548,21.182993902294115],[92.033278086102598,21.184826816377694],[92.03327792454877,21.18648892671462],[92.033296846626001,21.187183468013163],[92.033593417726962,21.192612923216132],[92.033597289294036,21.192680497442645],[92.034002608560016,21.199439679251956],[92.034147620548623,21.20373325915617],[92.033873475445162,21.206687616466141],[92.032717644723633,21.21217069596797],[92.032474985785683,21.213901746948558],[92.032471686858599,21.215647685587012],[92.032827688326861,21.220965323796964],[92.032844842443453,21.221191319628577],[92.033177210242613,21.225107399671618],[92.032474834671945,21.228995075789744],[92.031294588435372,21.23526255664294],[92.03108171993469,21.237188243375449],[92.031163707874597,21.239122717307314],[92.031872396237205,21.24507248339312],[92.032462477991146,21.250246662844919],[92.032465130912982,21.250269737591314],[92.033054291308247,21.255353166877981],[92.032812955297899,21.259932918538674],[92.03280461972021,21.261086798768101],[92.032966535586908,21.265322625873143],[92.032874263530161,21.268707012148148],[92.032287571236367,21.273673093418601],[92.032199773316748,21.275131465140969],[92.032279953222044,21.276590222042429],[92.032753638395747,21.280787124587611],[92.032536603590799,21.284690106991782],[92.031713923762254,21.287522043742101],[92.030814199183055,21.289922063654554],[92.028234284961485,21.295113170637002],[92.026668330458065,21.298030626493961],[92.026540053117145,21.298314471159763],[92.026386395680817,21.298587021092395],[92.02617158184124,21.299129796039669],[92.025930669795031,21.299662862055122],[92.025843021057938,21.299959969148382],[92.025728636120533,21.300248982579145],[92.022703259671928,21.309758911259287],[92.022536502040367,21.309959339705429],[92.021632365317032,21.31117825394935],[92.020875914997518,21.312482520562554],[92.020276230866855,21.313856490928181],[92.019028148581356,21.317232937454911],[92.018475977097125,21.319187536247547],[92.018240312398518,21.321197360315207],[92.018108691667919,21.32474376647377],[92.015886534806313,21.329020807268282],[92.015082261508127,21.330920966618876],[92.014592168774627,21.332912852028134],[92.014427420184532,21.334951142990114],[92.014426887737088,21.340392654750033],[92.013568560812288,21.344036675144832],[92.011505785159557,21.348588167802774],[92.008760552276513,21.353857253394075],[92.00867849448754,21.35401739927228],[92.006699862210468,21.357944593308353],[92.004575044044145,21.361330058827001],[92.001625747229937,21.365449363480156],[91.998274135023877,21.370078452273297],[91.996043947405795,21.372864032829899],[91.995533114951598,21.373544626848361],[91.991416616012884,21.379403160856487],[91.987241420335337,21.385206569640456],[91.987195553661024,21.385270713331369],[91.982112191465475,21.392423238452324],[91.975983521102165,21.400400238370626],[91.972341663950957,21.404833598248473],[91.966480795151512,21.411707791251729],[91.966348985528526,21.411864737744295],[91.962122883650764,21.416973552950616],[91.956921167027659,21.422330426930984],[91.95652935838676,21.422750981794778],[91.951240893227705,21.428668816076375],[91.95074186416376,21.429259835277694],[91.946641743354746,21.434403196185201],[91.946439569167453,21.434663179180571],[91.94073500464475,21.442184338089223],[91.940471252028928,21.442544195562284],[91.937143548096714,21.447244732907034],[91.936647046565767,21.447998398260452],[91.934485316060062,21.451533197617049],[91.933805276640072,21.452125386610266],[91.932599103779026,21.453491698218517],[91.931593730879342,21.454993698272737],[91.930702344564196,21.456542016233481],[91.929928271764183,21.458121361301028],[91.929452825508051,21.459282600449967],[91.928987250944104,21.46062511192229],[91.928673377374281,21.462005674632103],[91.928495019451589,21.463056330071115],[91.928336512554282,21.464455434944476],[91.928333836159609,21.465862382946803],[91.92839314662595,21.466968348519178],[91.928697403368886,21.469133119565406],[91.929369154175944,21.471224045873498],[91.929785012105881,21.472219436977955],[91.930631226282415,21.473896404896493],[91.931714168637285,21.475449507107307],[91.933013557857947,21.476849646530379],[91.934505055466119,21.478070590944426],[91.93551521869631,21.478789512133257],[91.937094434475583,21.479767763100991],[91.938796580278265,21.480544696212341],[91.940592526730782,21.481107014462534],[91.942451537796416,21.481445093664568],[91.944341797147743,21.481553147310656],[91.94623095310763,21.48142932570925],[91.948086672796947,21.481075747692728],[91.949877195966224,21.480498464349161],[91.951571878993363,21.479707355399697],[91.953141719700724,21.478715960000478],[91.954559853977742,21.477541244874786],[91.955802015685279,21.476203313756908],[91.95684695195574,21.474725063136439],[91.957676786775934,21.473131790212161],[91.958277326636207,21.471450759782645],[91.95863830303054,21.46971073750251],[91.958753547682861,21.467941497506452],[91.958650637278225,21.466567665486956],[91.961537253134267,21.461846359669075],[91.964474424813957,21.457696543231275],[91.969944074460969,21.450483657600696],[91.973700439889939,21.445770646104023],[91.978539148367403,21.440355239681114],[91.983924044428036,21.434808926911057],[91.984657170013634,21.433991255258579],[91.989167067985207,21.428538429817941],[91.995042372125496,21.42164613240212],[91.995203057976042,21.421454099739655],[91.999065219580686,21.416751713936097],[91.999341521891324,21.416403912540567],[92.005758579654596,21.408049906811673],[92.006058191506739,21.407644466972904],[92.011263999325976,21.400318062111531],[92.015459543073462,21.394485106871535],[92.01554651509943,21.394362758865793],[92.019461421530565,21.388789905443396],[92.021630991375559,21.386079522514915],[92.022029905977064,21.385555689670877],[92.0255949005617,21.380630844763299],[92.02563660454733,21.380572909472818],[92.028845093127316,21.3760906049128],[92.029301088030024,21.375410841440228],[92.031974760684619,21.371149775755942],[92.032586261715309,21.370065705401213],[92.034803462181259,21.365663513523362],[92.037673097809318,21.36015382444457],[92.037988234603091,21.359506094905861],[92.040721117844242,21.353473629479776],[92.041531239347265,21.351097719207157],[92.043016170315866,21.3447883655796],[92.043270430011759,21.343337540180038],[92.043355420611476,21.341869447270216],[92.043355050081274,21.338073820095907],[92.04546140323859,21.334018157978193],[92.046214654362728,21.332267212820785],[92.046700870455794,21.330435177644283],[92.046910624697375,21.328557609645223],[92.047057962866845,21.324566908071578],[92.047190232671511,21.324407897396508],[92.048203433630945,21.323020159601995],[92.049025407191394,21.321525532593199],[92.049643503278176,21.319947029028214],[92.053080346024544,21.309137716041516],[92.054169570287868,21.307107771736529],[92.054359587829993,21.306739918489217],[92.057330182759188,21.300760616179147],[92.057864467194605,21.299531050823088],[92.059171429854743,21.296043039236995],[92.059480884424246,21.295111042329658],[92.060847138515015,21.290404891885927],[92.061172452611927,21.288989759367329],[92.061334839492375,21.287550177910706],[92.061690735633562,21.281127543212975],[92.061629685714081,21.278996634627717],[92.061199923185157,21.275195517471655],[92.061681018048986,21.271116529549801],[92.061763907040969,21.269971254991724],[92.061882320707795,21.265596748218851],[92.061877604996553,21.264765291700609],[92.061721063615792,21.260690907553347],[92.061987332236683,21.255619210519235],[92.06191994421529,21.253486889003092],[92.061207651327749,21.247351390951842],[92.060614267948637,21.242157131318503],[92.06060687114207,21.242093787404634],[92.060124572803204,21.238051321363425],[92.060950934787755,21.233658568138924],[92.060968031163497,21.233565801897601],[92.061977653126931,21.227971529967181],[92.062166219885356,21.226306904030743],[92.062134455386683,21.224633179822213],[92.061668160138325,21.219151748697609],[92.061436443125643,21.215700634131423],[92.062380096915845,21.211219981533052],[92.062599728666243,21.209766887621587],[92.063015238609538,21.205279750619702],[92.063062085528003,21.203675983294332],[92.062883313567411,21.198413173699997],[92.062867695238083,21.198081280372833],[92.06245311556907,21.191190043005346],[92.062248957540731,21.187465726069188],[92.062320637773695,21.187309741035779],[92.065057646198412,21.181891135751371],[92.066170787327536,21.18041769775574],[92.0672544069525,21.17873713316132],[92.068067627093413,21.176927303734676],[92.069347055272758,21.173381305532644],[92.072161403621294,21.170037842691126],[92.075822192866099,21.16676205970932],[92.07695918387769,21.165620099678328],[92.077948460855382,21.164362958844119],[92.082284730597209,21.158129670665996],[92.087208964026871,21.153255504035513],[92.088234138840917,21.152122190027622],[92.093878823502834,21.145138782209646],[92.09440068347395,21.144449457978304],[92.100383186553501,21.136000084516443],[92.10673231712785,21.128634970284399],[92.111724296804937,21.122991642447648],[92.11186312108326,21.122832248065841],[92.116161300665127,21.117819738876982],[92.122585890655245,21.111022903713803],[92.124156520512159,21.109016510908965],[92.127463369253817,21.103857906911266],[92.132481303591774,21.09796902711755],[92.136668124579046,21.093366550790723],[92.137091582267217,21.092878522609222],[92.144755428274848,21.083613960465851],[92.152588424190881,21.074896297112137],[92.152659324756385,21.074816767013267],[92.163030264128977,21.063091411439682],[92.17536184303863,21.049312917826654],[92.175563943270717,21.04908195033639],[92.181921696633481,21.041649962916917],[92.182277048658889,21.04121693254887],[92.187142840359485,21.035033089128866],[92.192482638549578,21.028459736418689],[92.192891478767393,21.02793040655482],[92.198060735799729,21.020885738392291],[92.198995254813852,21.019422841828405],[92.19972662767384,21.017861301048388],[92.202043549789991,21.011925881949473],[92.202261213812932,21.011325072024821],[92.206122570518573,20.999786429505718],[92.206336118256971,20.99908226641924],[92.207982597898251,20.993037457489208],[92.211101690521573,20.983327267376559],[92.211241315012302,20.982862808483883],[92.213454513183606,20.97496499784809],[92.216299370758037,20.966727701665665],[92.216811962526222,20.964746146520415],[92.21694269847788,20.963999687536248],[92.217316982987171,20.963362958948913],[92.221028644297988,20.957404637384009],[92.221654796586634,20.956282090410184],[92.225754223516702,20.948013297722738],[92.226371555829857,20.946552000705925],[92.227728101852392,20.942703258539737],[92.230668472974429,20.936660358166481],[92.231056419145588,20.93578291668905],[92.233123461672832,20.930601934432534],[92.235646231133757,20.926304287165188],[92.236295506380898,20.925049446569432],[92.238292468523639,20.920623832788614],[92.242240844723042,20.915182934736713],[92.242367628159172,20.915005219978017],[92.246679178581559,20.908856938186332],[92.251628754291048,20.902531570227286],[92.251671389628072,20.902476794041114],[92.255711766136358,20.897258271584271],[92.256057395421251,20.896791562311133],[92.261014062328456,20.889789208574602],[92.26662388609806,20.882008927663481],[92.267342772997154,20.880901085572109],[92.270579986373662,20.875328327794456],[92.275766285080181,20.867250297620842],[92.2759912878237,20.866887207788942],[92.281882616184774,20.857031317508969],[92.288485701171012,20.846341058960967],[92.288748367869886,20.845896786487362],[92.292610262423565,20.839065828542552],[92.292738095985143,20.838834355315935],[92.296362298487736,20.832114177210659],[92.296492543343064,20.831866426567927],[92.300479009749324,20.82408417292811],[92.304820095522501,20.81596734360296],[92.305077834151575,20.815459387502351],[92.306712955295339,20.812056713540571],[92.310515154868042,20.805417504957447],[92.31073067743236,20.805026028381725],[92.315959012936034,20.795137838353863],[92.316121538976759,20.794820133506594],[92.317700803390636,20.791627262376242],[92.322173823762881,20.785957732819828],[92.322285387467744,20.785814365091554],[92.325909837495516,20.781091842903265],[92.326485825349195,20.780281417187368],[92.328565369960586,20.777114482173655],[92.329352520294222,20.77574564854838],[92.329548171517771,20.775286131558889],[92.332042464287497,20.77284127708295],[92.334655797499011,20.770574204127389],[92.335870559605269,20.770056737582102],[92.337471381220681,20.769120768438508],[92.338928592366472,20.767996271453008],[92.34021725784396,20.766702490917439],[92.341315328545008,20.765261567739508],[92.341444668361433,20.765034032058438],[92.342178924264658,20.76423751426309],[92.342429222610107,20.764064510715951],[92.34291893534764,20.763970571124762]]]]}}
]
}
